{"type": "FeatureCollection", "features": [ {"type": "Feature", "properties": {"norad_id": 34955, "name": "COSMOS 2251 DEB", "group": "cosmos-2251-debris", "lat": -54.11751055632647, "lon": 85.49968747634517, "alt_km": 556.1354551546838, "timestamp": "2025-12-14T20:40:32.168495+00:00", "meta": {"OBJECT_NAME": "COSMOS 2251 DEB", "OBJECT_ID": "1993-036AEJ", "EPOCH": "2025-12-11T10:00:38.398176", "MEAN_MOTION": 15.00495775, "ECCENTRICITY": 0.00779991, "INCLINATION": 74.0375, "RA_OF_ASC_NODE": 249.1952, "ARG_OF_PERICENTER": 319.1032, "MEAN_ANOMALY": 40.4318, "EPHEMERIS_TYPE": 0, "CLASSIFICATION_TYPE": "U", "NORAD_CAT_ID": 34955, "ELEMENT_SET_NO": 999, "REV_AT_EPOCH": 90014, "BSTAR": 0.0014966224, "MEAN_MOTION_DOT": 0.00020131, "MEAN_MOTION_DDOT": 0}, "tle": {"line1": "1 34955U 93036AEJ 25345.41711109  .00020131  00000+0  14966-2 0  9994", "line2": "2 34955  74.0375 249.1952 0077999 319.1032  40.4318 15.00495775900143"}}, "geometry": {"type": "Point", "coordinates": [85.49968747634517, -54.11751055632647]}}, {"type": "Feature", "properties": {"norad_id": 34962, "name": "COSMOS 2251 DEB", "group": "cosmos-2251-debris", "lat": -23.346038345086725, "lon": -177.6990027200706, "alt_km": 730.9624024103241, "timestamp": "2025-12-14T20:40:32.168505+00:00", "meta": {"OBJECT_NAME": "COSMOS 2251 DEB", "OBJECT_ID": "1993-036AER", "EPOCH": "2025-12-14T07:30:32.402592", "MEAN_MOTION": 14.46523059, "ECCENTRICITY": 0.00187495, "INCLINATION": 74.0294, "RA_OF_ASC_NODE": 190.4257, "ARG_OF_PERICENTER": 303.6463, "MEAN_ANOMALY": 56.2907, "EPHEMERIS_TYPE": 0, "CLASSIFICATION_TYPE": "U", "NORAD_CAT_ID": 34962, "ELEMENT_SET_NO": 999, "REV_AT_EPOCH": 87601, "BSTAR": 0.00049664855, "MEAN_MOTION_DOT": 1.766e-05, "MEAN_MOTION_DDOT": 0}, "tle": {"line1": "1 34962U 93036AER 25348.31287503  .00001766  00000+0  49665-3 0  9998", "line2": "2 34962  74.0294 190.4257 0018749 303.6463  56.2907 14.46523059876014"}}, "geometry": {"type": "Point", "coordinates": [-177.6990027200706, -23.346038345086725]}}, {"type": "Feature", "properties": {"norad_id": 34963, "name": "COSMOS 2251 DEB", "group": "cosmos-2251-debris", "lat": -74.1304584672898, "lon": -54.92290612395622, "alt_km": 703.9936184809385, "timestamp": "2025-12-14T20:40:32.168515+00:00", "meta": {"OBJECT_NAME": "COSMOS 2251 DEB", "OBJECT_ID": "1993-036AES", "EPOCH": "2025-12-12T21:06:37.533312", "MEAN_MOTION": 14.5108556, "ECCENTRICITY": 0.00425092, "INCLINATION": 74.1719, "RA_OF_ASC_NODE": 42.4827, "ARG_OF_PERICENTER": 238.9907, "MEAN_ANOMALY": 120.7077, "EPHEMERIS_TYPE": 0, "CLASSIFICATION_TYPE": "U", "NORAD_CAT_ID": 34963, "ELEMENT_SET_NO": 999, "REV_AT_EPOCH": 86803, "BSTAR": 0.0018603991, "MEAN_MOTION_DOT": 7.439e-05, "MEAN_MOTION_DDOT": 0}, "tle": {"line1": "1 34963U 93036AES 25346.87960108  .00007439  00000+0  18604-2 0  9998", "line2": "2 34963  74.1719  42.4827 0042509 238.9907 120.7077 14.51085560868035"}}, "geometry": {"type": "Point", "coordinates": [-54.92290612395622, -74.1304584672898]}}, {"type": "Feature", "properties": {"norad_id": 34964, "name": "COSMOS 2251 DEB", "group": "cosmos-2251-debris", "lat": -73.14530202869925, "lon": -124.26163774631587, "alt_km": 824.8592272413189, "timestamp": "2025-12-14T20:40:32.168525+00:00", "meta": {"OBJECT_NAME": "COSMOS 2251 DEB", "OBJECT_ID": "1993-036AET", "EPOCH": "2025-12-12T17:42:31.829760", "MEAN_MOTION": 14.00606472, "ECCENTRICITY": 0.0212761, "INCLINATION": 73.9721, "RA_OF_ASC_NODE": 347.8441, "ARG_OF_PERICENTER": 206.277, "MEAN_ANOMALY": 152.7449, "EPHEMERIS_TYPE": 0, "CLASSIFICATION_TYPE": "U", "NORAD_CAT_ID": 34964, "ELEMENT_SET_NO": 999, "REV_AT_EPOCH": 84478, "BSTAR": 0.0019398871, "MEAN_MOTION_DOT": 3.487e-05, "MEAN_MOTION_DDOT": 0}, "tle": {"line1": "1 34964U 93036AET 25346.73786840  .00003487  00000+0  19399-2 0  9994", "line2": "2 34964  73.9721 347.8441 0212761 206.2770 152.7449 14.00606472844784"}}, "geometry": {"type": "Point", "coordinates": [-124.26163774631587, -73.14530202869925]}}, {"type": "Feature", "properties": {"norad_id": 34965, "name": "COSMOS 2251 DEB", "group": "cosmos-2251-debris", "lat": -19.463196643071512, "lon": 118.69585723311377, "alt_km": 734.0433745030596, "timestamp": "2025-12-14T20:40:32.168535+00:00", "meta": {"OBJECT_NAME": "COSMOS 2251 DEB", "OBJECT_ID": "1993-036AEU", "EPOCH": "2025-12-13T03:20:09.825504", "MEAN_MOTION": 14.48709196, "ECCENTRICITY": 0.00265546, "INCLINATION": 74.0514, "RA_OF_ASC_NODE": 127.7194, "ARG_OF_PERICENTER": 255.0904, "MEAN_ANOMALY": 104.7315, "EPHEMERIS_TYPE": 0, "CLASSIFICATION_TYPE": "U", "NORAD_CAT_ID": 34965, "ELEMENT_SET_NO": 999, "REV_AT_EPOCH": 87119, "BSTAR": 0.00058289093, "MEAN_MOTION_DOT": 2.18e-05, "MEAN_MOTION_DDOT": 0}, "tle": {"line1": "1 34965U 93036AEU 25347.13900261  .00002180  00000+0  58289-3 0  9996", "line2": "2 34965  74.0514 127.7194 0026554 255.0904 104.7315 14.48709196871194"}}, "geometry": {"type": "Point", "coordinates": [118.69585723311377, -19.463196643071512]}}, {"type": "Feature", "properties": {"norad_id": 34967, "name": "COSMOS 2251 DEB", "group": "cosmos-2251-debris", "lat": -34.842327753454065, "lon": 81.42847711202839, "alt_km": 777.3387602214016, "timestamp": "2025-12-14T20:40:32.168545+00:00", "meta": {"OBJECT_NAME": "COSMOS 2251 DEB", "OBJECT_ID": "1993-036AEW", "EPOCH": "2025-12-13T00:27:20.673792", "MEAN_MOTION": 14.44269018, "ECCENTRICITY": 0.00380101, "INCLINATION": 73.9933, "RA_OF_ASC_NODE": 253.3374, "ARG_OF_PERICENTER": 39.5345, "MEAN_ANOMALY": 320.8573, "EPHEMERIS_TYPE": 0, "CLASSIFICATION_TYPE": "U", "NORAD_CAT_ID": 34967, "ELEMENT_SET_NO": 999, "REV_AT_EPOCH": 64961, "BSTAR": 0.0011451852, "MEAN_MOTION_DOT": 3.946e-05, "MEAN_MOTION_DDOT": 0}, "tle": {"line1": "1 34967U 93036AEW 25347.01898928  .00003946  00000+0  11452-2 0  9992", "line2": "2 34967  73.9933 253.3374 0038010  39.5345 320.8573 14.44269018649616"}}, "geometry": {"type": "Point", "coordinates": [81.42847711202839, -34.842327753454065]}}, {"type": "Feature", "properties": {"norad_id": 34968, "name": "COSMOS 2251 DEB", "group": "cosmos-2251-debris", "lat": -7.1835001237536655, "lon": 65.09218127693488, "alt_km": 759.7422521028248, "timestamp": "2025-12-14T20:40:32.168554+00:00", "meta": {"OBJECT_NAME": "COSMOS 2251 DEB", "OBJECT_ID": "1993-036AEX", "EPOCH": "2025-12-14T03:22:05.329344", "MEAN_MOTION": 14.59409619, "ECCENTRICITY": 0.00866972, "INCLINATION": 74.0386, "RA_OF_ASC_NODE": 244.3991, "ARG_OF_PERICENTER": 4.4101, "MEAN_ANOMALY": 355.7807, "EPHEMERIS_TYPE": 0, "CLASSIFICATION_TYPE": "U", "NORAD_CAT_ID": 34968, "ELEMENT_SET_NO": 999, "REV_AT_EPOCH": 88498, "BSTAR": 0.00021583388, "MEAN_MOTION_DOT": 1.045e-05, "MEAN_MOTION_DDOT": 0}, "tle": {"line1": "1 34968U 93036AEX 25348.14033946  .00001045  00000+0  21583-3 0  9994", "line2": "2 34968  74.0386 244.3991 0086697   4.4101 355.7807 14.59409619884988"}}, "geometry": {"type": "Point", "coordinates": [65.09218127693488, -7.1835001237536655]}}, {"type": "Feature", "properties": {"norad_id": 34969, "name": "COSMOS 2251 DEB", "group": "cosmos-2251-debris", "lat": 64.5916705954382, "lon": 56.386634749298324, "alt_km": 769.7776129196864, "timestamp": "2025-12-14T20:40:32.168591+00:00", "meta": {"OBJECT_NAME": "COSMOS 2251 DEB", "OBJECT_ID": "1993-036AEY", "EPOCH": "2025-12-12T19:44:01.430592", "MEAN_MOTION": 14.3225634, "ECCENTRICITY": 0.00736223, "INCLINATION": 74.0145, "RA_OF_ASC_NODE": 22.9925, "ARG_OF_PERICENTER": 156.2014, "MEAN_ANOMALY": 204.2571, "EPHEMERIS_TYPE": 0, "CLASSIFICATION_TYPE": "U", "NORAD_CAT_ID": 34969, "ELEMENT_SET_NO": 999, "REV_AT_EPOCH": 65138, "BSTAR": 0.00040409386, "MEAN_MOTION_DOT": 1.097e-05, "MEAN_MOTION_DDOT": 0}, "tle": {"line1": "1 34969U 93036AEY 25346.82223878  .00001097  00000+0  40409-3 0  9998", "line2": "2 34969  74.0145  22.9925 0073622 156.2014 204.2571 14.32256340651386"}}, "geometry": {"type": "Point", "coordinates": [56.386634749298324, 64.5916705954382]}}, {"type": "Feature", "properties": {"norad_id": 34971, "name": "COSMOS 2251 DEB", "group": "cosmos-2251-debris", "lat": -39.80946935425794, "lon": 114.8326520396672, "alt_km": 700.7179075203085, "timestamp": "2025-12-14T20:40:32.168601+00:00", "meta": {"OBJECT_NAME": "COSMOS 2251 DEB", "OBJECT_ID": "1993-036AFA", "EPOCH": "2025-12-11T13:03:07.178112", "MEAN_MOTION": 14.55631176, "ECCENTRICITY": 0.00696698, "INCLINATION": 73.9786, "RA_OF_ASC_NODE": 287.2832, "ARG_OF_PERICENTER": 153.3092, "MEAN_ANOMALY": 329.2446, "EPHEMERIS_TYPE": 0, "CLASSIFICATION_TYPE": "U", "NORAD_CAT_ID": 34971, "ELEMENT_SET_NO": 999, "REV_AT_EPOCH": 66155, "BSTAR": 0.00028423964, "MEAN_MOTION_DOT": 1.251e-05, "MEAN_MOTION_DDOT": 0}, "tle": {"line1": "1 34971U 93036AFA 25345.54383308  .00001251  00000+0  28424-3 0  9999", "line2": "2 34971  73.9786 287.2832 0069669 153.3092 329.2446 14.55631176661559"}}, "geometry": {"type": "Point", "coordinates": [114.8326520396672, -39.80946935425794]}}, {"type": "Feature", "properties": {"norad_id": 34972, "name": "COSMOS 2251 DEB", "group": "cosmos-2251-debris", "lat": -58.73941380208957, "lon": -106.05609118772777, "alt_km": 639.970024952413, "timestamp": "2025-12-14T20:40:32.168612+00:00", "meta": {"OBJECT_NAME": "COSMOS 2251 DEB", "OBJECT_ID": "1993-036AFB", "EPOCH": "2025-12-13T14:55:13.195200", "MEAN_MOTION": 14.72905355, "ECCENTRICITY": 0.00335804, "INCLINATION": 73.9887, "RA_OF_ASC_NODE": 48.1347, "ARG_OF_PERICENTER": 207.0311, "MEAN_ANOMALY": 304.1293, "EPHEMERIS_TYPE": 0, "CLASSIFICATION_TYPE": "U", "NORAD_CAT_ID": 34972, "ELEMENT_SET_NO": 999, "REV_AT_EPOCH": 87663, "BSTAR": 0.00156938, "MEAN_MOTION_DOT": 0.00010131, "MEAN_MOTION_DDOT": 0}, "tle": {"line1": "1 34972U 93036AFB 25347.62168050  .00010131  00000+0  15694-2 0  9997", "line2": "2 34972  73.9887  48.1347 0033580 207.0311 304.1293 14.72905355876632"}}, "geometry": {"type": "Point", "coordinates": [-106.05609118772777, -58.73941380208957]}}]}